{
    "links": {
        "self": "http://www.neowsapp.com/rest/v1/neo/3376341?api_key=iIulBulltgU6a56xZRHN4H3l9WmuAYTsLGpBGhQ2"
    },
    "id": "3376341",
    "neo_reference_id": "3376341",
    "name": "(2007 JW9)",
    "designation": "2007 JW9",
    "nasa_jpl_url": "http://ssd.jpl.nasa.gov/sbdb.cgi?sstr=3376341",
    "absolute_magnitude_h": 24.3,
    "estimated_diameter": {
        "kilometers": {
            "estimated_diameter_min": 0.0366906138,
            "estimated_diameter_max": 0.0820427065
        },
        "meters": {
            "estimated_diameter_min": 36.6906137531,
            "estimated_diameter_max": 82.0427064882
        },
        "miles": {
            "estimated_diameter_min": 0.0227984834,
            "estimated_diameter_max": 0.0509789586
        },
        "feet": {
            "estimated_diameter_min": 120.3760332259,
            "estimated_diameter_max": 269.1689931548
        }
    },
    "is_potentially_hazardous_asteroid": false,
    "close_approach_data": [
        {
            "close_approach_date": "2007-04-20",
            "close_approach_date_full": "2007-Apr-20 16:34",
            "epoch_date_close_approach": 1177086840000,
            "relative_velocity": {
                "kilometers_per_second": "4.1460732066",
                "kilometers_per_hour": "14925.8635436378",
                "miles_per_hour": "9274.3511557676"
            },
            "miss_distance": {
                "astronomical": "0.1312815806",
                "lunar": "51.0685348534",
                "kilometers": "19639444.827993322",
                "miles": "12203385.1376269636"
            },
            "orbiting_body": "Earth"
        }
    ],
    "orbital_data": {
        "orbit_id": "8",
        "orbit_determination_date": "2017-04-06 09:06:28",
        "first_observation_date": "2007-05-10",
        "last_observation_date": "2007-05-24",
        "data_arc_in_days": 14,
        "observations_used": 25,
        "orbit_uncertainty": "8",
        "minimum_orbit_intersection": ".130953",
        "jupiter_tisserand_invariant": "3.683",
        "epoch_osculation": "2454234.5",
        "eccentricity": ".4415975766985519",
        "semi_major_axis": "2.03016614472648",
        "inclination": "2.498652889188011",
        "ascending_node_longitude": "230.9557906202073",
        "orbital_period": "1056.563974681863",
        "perihelion_distance": "1.133649694919825",
        "perihelion_argument": "334.9536665960788",
        "aphelion_distance": "2.926682594533135",
        "perihelion_time": "2454207.562206589519",
        "mean_anomaly": "9.17843676308684",
        "mean_motion": ".3407271198210199",
        "equinox": "J2000",
        "orbit_class": {
            "orbit_class_type": "AMO",
            "orbit_class_description": "Near-Earth asteroid orbits similar to that of 1221 Amor",
            "orbit_class_range": "1.017 AU < q (perihelion) < 1.3 AU"
        }
    },
    "is_sentry_object": false
}